ORBCOMM-X               
1 21576U 91050C   24342.73801137  .00000960  00000+0  29971-3 0  9996
2 21576  98.3704  47.0291 0004520  56.7976 303.3647 14.42963006754500
ORBCOMM FM01            
1 23545U 95017A   24342.90835445  .00010102  00000+0  11671-2 0  9995
2 23545  69.9639 189.6877 0007125 260.3364  99.6984 14.85797279584054
ORBCOMM FM02            
1 23546U 95017B   24342.90934137  .00013950  00000+0  16091-2 0  9999
2 23546  69.9660 209.3791 0009087 256.4849 103.5291 14.85735314583694
ORBCOMM FM08            
1 25112U 97084A   24342.91369888  .00003590  00000+0  10702-2 0  9994
2 25112  45.0122 205.2422 0006283   7.9225 352.1724 14.44504090413708
ORBCOMM FM10            
1 25113U 97084B   24342.86872236  .00003342  00000+0  10025-2 0  9998
2 25113  45.0133 207.5279 0004136 333.4924  26.5715 14.44350329588848
ORBCOMM FM11            
1 25114U 97084C   24342.91097211  .00003335  00000+0  10052-2 0  9999
2 25114  45.0119 207.6302 0005023 334.2896  25.7704 14.44127261413814
ORBCOMM FM12            
1 25115U 97084D   24342.94445432  .00003219  00000+0  97171-3 0  9994
2 25115  45.0127 207.2291 0003967 334.8080  25.2577 14.44130776413619
ORBCOMM FM09            
1 25116U 97084E   24342.89346468  .00003193  00000+0  96546-3 0  9994
2 25116  45.0129 208.2421 0005157 316.7115  43.3330 14.44054859413816
